STARLINK-36828          
1 67857U 26034H   26076.25024656  .00309368  00000+0  15099-2 0  9993
2 67857  53.1589 173.4126 0001383  83.7939 276.3241 15.80952679  5130
STARLINK-36837          
1 67858U 26034J   26076.24874707  .00289047  00000+0  14072-2 0  9994
2 67858  53.1582 173.4035 0001509  62.9836 297.1341 15.81062855  5139
STARLINK-36393          
1 67859U 26034K   26076.24799548  .00471509  00000+0  22526-2 0  9993
2 67859  53.1585 173.3977 0001754 108.8386 251.2828 15.80987389  5137
STARLINK-35873          
1 67860U 26034L   26075.99437221  .00293444  00000+0  14348-2 0  9996
2 67860  53.1595 174.6594 0001683 101.2504 258.8708 15.80955738  5121
STARLINK-36325          
1 67861U 26034M   26075.99361841  .00253728  00000+0  12473-2 0  9999
2 67861  53.1591 174.6551 0001198  76.7670 283.3487 15.80949258  5095
STARLINK-36332          
1 67862U 26034N   26075.99286899  .00272918  00000+0  13380-2 0  9999
2 67862  53.1593 174.6499 0001201  48.8998 311.2129 15.80954058  5095
STARLINK-36835          
1 67863U 26034P   26075.99211952  .00272533  00000+0  13365-2 0  9994
2 67863  53.1598 174.6444 0001468  54.0648 306.0511 15.80949793  5094
STARLINK-36831          
1 67864U 26034Q   26076.24424471  .00479664  00000+0  22905-2 0  9990
2 67864  53.1584 173.3724 0001098  80.5978 279.5169 15.80974376  5139
STARLINK-36738          
1 67865U 26034R   26075.99063827  .00456639  00000+0  21860-2 0  9992
2 67865  53.1586 174.6343 0005308  72.8246 287.3357 15.80975601  5096
STARLINK-36780          
1 67866U 26034S   26075.98988217  .00324297  00000+0  15805-2 0  9997
2 67866  53.1586 174.6283 0003909  78.4570 281.6892 15.80939615  5093
STARLINK-36761          
1 67867U 26034T   26075.98913140  .00416052  00000+0  20007-2 0  9992
2 67867  53.1593 174.6230 0004105  67.8576 292.2883 15.80988110  5093
STARLINK-36762          
1 67868U 26034U   26075.98837411  .00412658  00000+0  19850-2 0  9991
2 67868  53.1594 174.6183 0002512  78.0419 282.0886 15.80993779  5099
